{
  "type": "FeatureCollection",
  "features": [
    {
      "type": "Feature",
      "properties": {
        "norad_id": 33886,
        "name": "IRIDIUM 33 DEB",
        "group": "iridium-33-debris",
        "lat": 56.0210679446095,
        "lon": -116.13745507319766,
        "alt_km": 772.6346707796883,
        "timestamp": "2025-12-07T22:37:43.466224+00:00",
        "meta_object_name": "IRIDIUM 33 DEB",
        "meta_object_id": "1997-051BF",
        "meta_epoch": "2025-12-07T01:07:16.810176",
        "meta_mean_motion": 14.36041128,
        "meta_eccentricity": 0.00120696,
        "meta_inclination": 86.3831,
        "meta_ra_of_asc_node": 69.6247,
        "meta_arg_of_pericenter": 263.5823,
        "meta_mean_anomaly": 270.3619,
        "meta_ephemeris_type": 0,
        "meta_classification_type": "U",
        "meta_norad_cat_id": 33886,
        "meta_element_set_no": 999,
        "meta_rev_at_epoch": 87970,
        "meta_bstar": 0.00036882618,
        "meta_mean_motion_dot": 1.092e-05,
        "meta_mean_motion_ddot": 0,
        "tle_line1": "1 33886U 97051BF  25341.04672234  .00001092  00000+0  36883-3 0  9995",
        "tle_line2": "2 33886  86.3831  69.6247 0012069 263.5823 270.3619 14.36041128879709"
      },
      "geometry": {
        "type": "Point",
        "coordinates": [
          -116.13745507319766,
          56.0210679446095
        ]
      }
    },
    {
      "type": "Feature",
      "properties": {
        "norad_id": 33887,
        "name": "IRIDIUM 33 DEB",
        "group": "iridium-33-debris",
        "lat": 39.74867802309025,
        "lon": 8.540603604701882,
        "alt_km": 767.25023918834,
        "timestamp": "2025-12-07T22:37:43.466235+00:00",
        "meta_object_name": "IRIDIUM 33 DEB",
        "meta_object_id": "1997-051BG",
        "meta_epoch": "2025-12-07T00:51:15.596352",
        "meta_mean_motion": 14.37213373,
        "meta_eccentricity": 0.00040967,
        "meta_inclination": 86.3048,
        "meta_ra_of_asc_node": 5.8505,
        "meta_arg_of_pericenter": 253.4164,
        "meta_mean_anomaly": 135.2928,
        "meta_ephemeris_type": 0,
        "meta_classification_type": "U",
        "meta_norad_cat_id": 33887,
        "meta_element_set_no": 999,
        "meta_rev_at_epoch": 88083,
        "meta_bstar": 0.00025442892,
        "meta_mean_motion_dot": 7.77e-06,
        "meta_mean_motion_ddot": 0,
        "tle_line1": "1 33887U 97051BG  25341.03559718  .00000777  00000+0  25443-3 0  9995",
        "tle_line2": "2 33887  86.3048   5.8505 0004096 253.4164 135.2928 14.37213373880838"
      },
      "geometry": {
        "type": "Point",
        "coordinates": [
          8.540603604701882,
          39.74867802309025
        ]
      }
    },
    {
      "type": "Feature",
      "properties": {
        "norad_id": 33953,
        "name": "IRIDIUM 33 DEB",
        "group": "iridium-33-debris",
        "lat": -56.060907227127835,
        "lon": 50.470277975393806,
        "alt_km": 728.7358586724895,
        "timestamp": "2025-12-07T22:37:43.466245+00:00",
        "meta_object_name": "IRIDIUM 33 DEB",
        "meta_object_id": "1997-051BN",
        "meta_epoch": "2025-12-07T04:52:02.769312",
        "meta_mean_motion": 14.55240565,
        "meta_eccentricity": 0.00185224,
        "meta_inclination": 86.3845,
        "meta_ra_of_asc_node": 56.1825,
        "meta_arg_of_pericenter": 119.6509,
        "meta_mean_anomaly": 269.6511,
        "meta_ephemeris_type": 0,
        "meta_classification_type": "U",
        "meta_norad_cat_id": 33953,
        "meta_element_set_no": 999,
        "meta_rev_at_epoch": 88223,
        "meta_bstar": 0.0019512247,
        "meta_mean_motion_dot": 8.487e-05,
        "meta_mean_motion_ddot": 0,
        "tle_line1": "1 33953U 97051BN  25341.20280983  .00008487  00000+0  19512-2 0  9998",
        "tle_line2": "2 33953  86.3845  56.1825 0018522 119.6509 269.6511 14.55240565882235"
      },
      "geometry": {
        "type": "Point",
        "coordinates": [
          50.470277975393806,
          -56.060907227127835
        ]
      }
    },
    {
      "type": "Feature",
      "properties": {
        "norad_id": 33960,
        "name": "IRIDIUM 33 DEB",
        "group": "iridium-33-debris",
        "lat": -44.12225875866104,
        "lon": -71.86841844846307,
        "alt_km": 622.8543045144415,
        "timestamp": "2025-12-07T22:37:43.466257+00:00",
        "meta_object_name": "IRIDIUM 33 DEB",
        "meta_object_id": "1997-051BV",
        "meta_epoch": "2025-12-07T03:27:46.369152",
        "meta_mean_motion": 14.84740779,
        "meta_eccentricity": 0.00072795,
        "meta_inclination": 86.2539,
        "meta_ra_of_asc_node": 292.1509,
        "meta_arg_of_pericenter": 70.1028,
        "meta_mean_anomaly": 300.1032,
        "meta_ephemeris_type": 0,
        "meta_classification_type": "U",
        "meta_norad_cat_id": 33960,
        "meta_element_set_no": 999,
        "meta_rev_at_epoch": 88784,
        "meta_bstar": 0.004868565,
        "meta_mean_motion_dot": 0.00041494,
        "meta_mean_motion_ddot": 0,
        "tle_line1": "1 33960U 97051BV  25341.14428668  .00041494  00000+0  48686-2 0  9992",
        "tle_line2": "2 33960  86.2539 292.1509 0007279  70.1028 300.1032 14.84740779887842"
      },
      "geometry": {
        "type": "Point",
        "coordinates": [
          -71.86841844846307,
          -44.12225875866104
        ]
      }
    },
    {
      "type": "Feature",
      "properties": {
        "norad_id": 33966,
        "name": "IRIDIUM 33 DEB",
        "group": "iridium-33-debris",
        "lat": 11.580627835080966,
        "lon": -132.6545835564255,
        "alt_km": 724.663097855997,
        "timestamp": "2025-12-07T22:37:43.466267+00:00",
        "meta_object_name": "IRIDIUM 33 DEB",
        "meta_object_id": "1997-051CB",
        "meta_epoch": "2025-12-07T02:10:42.139200",
        "meta_mean_motion": 14.49558649,
        "meta_eccentricity": 0.00067634,
        "meta_inclination": 86.3927,
        "meta_ra_of_asc_node": 48.4516,
        "meta_arg_of_pericenter": 207.8589,
        "meta_mean_anomaly": 196.7074,
        "meta_ephemeris_type": 0,
        "meta_classification_type": "U",
        "meta_norad_cat_id": 33966,
        "meta_element_set_no": 999,
        "meta_rev_at_epoch": 88360,
        "meta_bstar": 0.00095264475,
        "meta_mean_motion_dot": 3.674e-05,
        "meta_mean_motion_ddot": 0,
        "tle_line1": "1 33966U 97051CB  25341.09076550  .00003674  00000+0  95264-3 0  9994",
        "tle_line2": "2 33966  86.3927  48.4516 0006763 207.8589 196.7074 14.49558649883607"
      },
      "geometry": {
        "type": "Point",
        "coordinates": [
          -132.6545835564255,
          11.580627835080966
        ]
      }
    },
    {
      "type": "Feature",
      "properties": {
        "norad_id": 34071,
        "name": "IRIDIUM 33 DEB",
        "group": "iridium-33-debris",
        "lat": -56.94643080864785,
        "lon": -154.45025783702036,
        "alt_km": 737.8179850176402,
        "timestamp": "2025-12-07T22:37:43.466278+00:00",
        "meta_object_name": "IRIDIUM 33 DEB",
        "meta_object_id": "1997-051CE",
        "meta_epoch": "2025-12-07T01:39:23.533632",
        "meta_mean_motion": 14.49427213,
        "meta_eccentricity": 0.00097313,
        "meta_inclination": 86.3456,
        "meta_ra_of_asc_node": 20.2932,
        "meta_arg_of_pericenter": 122.8421,
        "meta_mean_anomaly": 237.3721,
        "meta_ephemeris_type": 0,
        "meta_classification_type": "U",
        "meta_norad_cat_id": 34071,
        "meta_element_set_no": 999,
        "meta_rev_at_epoch": 88252,
        "meta_bstar": 0.00099451652,
        "meta_mean_motion_dot": 3.825e-05,
        "meta_mean_motion_ddot": 0,
        "tle_line1": "1 34071U 97051CE  25341.06902238  .00003825  00000+0  99452-3 0  9991",
        "tle_line2": "2 34071  86.3456  20.2932 0009731 122.8421 237.3721 14.49427213882524"
      },
      "geometry": {
        "type": "Point",
        "coordinates": [
          -154.45025783702036,
          -56.94643080864785
        ]
      }
    },
    {
      "type": "Feature",
      "properties": {
        "norad_id": 34077,
        "name": "IRIDIUM 33 DEB",
        "group": "iridium-33-debris",
        "lat": 4.8492427822980195,
        "lon": -126.68670418177315,
        "alt_km": 684.2235504450045,
        "timestamp": "2025-12-07T22:37:43.466289+00:00",
        "meta_object_name": "IRIDIUM 33 DEB",
        "meta_object_id": "1997-051CL",
        "meta_epoch": "2025-12-07T03:53:37.904064",
        "meta_mean_motion": 14.64710205,
        "meta_eccentricity": 0.00107238,
        "meta_inclination": 86.3866,
        "meta_ra_of_asc_node": 53.9641,
        "meta_arg_of_pericenter": 57.0642,
        "meta_mean_anomaly": 324.3195,
        "meta_ephemeris_type": 0,
        "meta_classification_type": "U",
        "meta_norad_cat_id": 34077,
        "meta_element_set_no": 999,
        "meta_rev_at_epoch": 88251,
        "meta_bstar": 0.0027316707,
        "meta_mean_motion_dot": 0.00014589,
        "meta_mean_motion_ddot": 0,
        "tle_line1": "1 34077U 97051CL  25341.16224426  .00014589  00000+0  27317-2 0  9993",
        "tle_line2": "2 34077  86.3866  53.9641 0010723  57.0642 324.3195 14.64710205882516"
      },
      "geometry": {
        "type": "Point",
        "coordinates": [
          -126.68670418177315,
          4.8492427822980195
        ]
      }
    }
  ]
}